CCSDS_OMM_VERS = 2.0
CREATION_DATE  = 
ORIGINATOR     = 

OBJECT_NAME    = COSMOS 2151
OBJECT_ID      = 1991-042A
CENTER_NAME    = EARTH
REF_FRAME      = TEME
TIME_SYSTEM    = UTC
MEAN_ELEMENT_THEORY = SGP/SGP4

EPOCH          = 2025-11-24T01:46:14.748384
MEAN_MOTION    = 14.99589053
ECCENTRICITY   = .0014011
INCLINATION    = 82.4968
RA_OF_ASC_NODE = 185.4888
ARG_OF_PERICENTER = 59.1642
MEAN_ANOMALY   = 301.0958

EPHEMERIS_TYPE = 0
CLASSIFICATION_TYPE = U
NORAD_CAT_ID   = 21422
ELEMENT_SET_NO = 999
REV_AT_EPOCH   = 84736
BSTAR          = .17015E-3
MEAN_MOTION_DOT = .2123E-4
MEAN_MOTION_DDOT = 0

CCSDS_OMM_VERS = 2.0
CREATION_DATE  = 
ORIGINATOR     = 

OBJECT_NAME    = SL-14 R/B
OBJECT_ID      = 1991-042B
CENTER_NAME    = EARTH
REF_FRAME      = TEME
TIME_SYSTEM    = UTC
MEAN_ELEMENT_THEORY = SGP/SGP4

EPOCH          = 2025-11-24T01:49:28.687008
MEAN_MOTION    = 14.81713533
ECCENTRICITY   = .0015867
INCLINATION    = 82.4914
RA_OF_ASC_NODE = 319.2273
ARG_OF_PERICENTER = 224.4386
MEAN_ANOMALY   = 135.5556

EPHEMERIS_TYPE = 0
CLASSIFICATION_TYPE = U
NORAD_CAT_ID   = 21423
ELEMENT_SET_NO = 999
REV_AT_EPOCH   = 83743
BSTAR          = .61487E-4
MEAN_MOTION_DOT = .508E-5
MEAN_MOTION_DDOT = 0

CCSDS_OMM_VERS = 2.0
CREATION_DATE  = 
ORIGINATOR     = 

OBJECT_NAME    = ERS-1
OBJECT_ID      = 1991-050A
CENTER_NAME    = EARTH
REF_FRAME      = TEME
TIME_SYSTEM    = UTC
MEAN_ELEMENT_THEORY = SGP/SGP4

EPOCH          = 2025-11-24T00:53:36.762720
MEAN_MOTION    = 14.39343907
ECCENTRICITY   = .0032505
INCLINATION    = 98.7915
RA_OF_ASC_NODE = 338.6237
ARG_OF_PERICENTER = 154.0550
MEAN_ANOMALY   = 206.2275

EPHEMERIS_TYPE = 0
CLASSIFICATION_TYPE = U
NORAD_CAT_ID   = 21574
ELEMENT_SET_NO = 999
REV_AT_EPOCH   = 80053
BSTAR          = .13167E-3
MEAN_MOTION_DOT = .365E-5
MEAN_MOTION_DDOT = 0

CCSDS_OMM_VERS = 2.0
CREATION_DATE  = 
ORIGINATOR     = 

OBJECT_NAME    = ARIANE 40 R/B
OBJECT_ID      = 1991-050F
CENTER_NAME    = EARTH
REF_FRAME      = TEME
TIME_SYSTEM    = UTC
MEAN_ELEMENT_THEORY = SGP/SGP4

EPOCH          = 2025-11-24T01:29:14.222688
MEAN_MOTION    = 14.42790479
ECCENTRICITY   = .0003888
INCLINATION    = 98.2189
RA_OF_ASC_NODE = 19.1644
ARG_OF_PERICENTER = 51.1788
MEAN_ANOMALY   = 308.9749

EPHEMERIS_TYPE = 0
CLASSIFICATION_TYPE = U
NORAD_CAT_ID   = 21610
ELEMENT_SET_NO = 999
REV_AT_EPOCH   = 80376
BSTAR          = .13706E-3
MEAN_MOTION_DOT = .415E-5
MEAN_MOTION_DDOT = 0

CCSDS_OMM_VERS = 2.0
CREATION_DATE  = 
ORIGINATOR     = 

OBJECT_NAME    = INTERCOSMOS 25
OBJECT_ID      = 1991-086A
CENTER_NAME    = EARTH
REF_FRAME      = TEME
TIME_SYSTEM    = UTC
MEAN_ELEMENT_THEORY = SGP/SGP4

EPOCH          = 2025-11-24T01:24:57.175776
MEAN_MOTION    = 12.11638303
ECCENTRICITY   = .1487617
INCLINATION    = 82.6071
RA_OF_ASC_NODE = 13.8708
ARG_OF_PERICENTER = 344.6778
MEAN_ANOMALY   = 11.3474

EPHEMERIS_TYPE = 0
CLASSIFICATION_TYPE = U
NORAD_CAT_ID   = 21819
ELEMENT_SET_NO = 999
REV_AT_EPOCH   = 48389
BSTAR          = .23141E-3
MEAN_MOTION_DOT = .118E-4
MEAN_MOTION_DDOT = 0

CCSDS_OMM_VERS = 2.0
CREATION_DATE  = 
ORIGINATOR     = 

OBJECT_NAME    = SL-8 R/B
OBJECT_ID      = 1992-008B
CENTER_NAME    = EARTH
REF_FRAME      = TEME
TIME_SYSTEM    = UTC
MEAN_ELEMENT_THEORY = SGP/SGP4

EPOCH          = 2025-11-24T01:29:11.381856
MEAN_MOTION    = 13.75953038
ECCENTRICITY   = .0036042
INCLINATION    = 82.9269
RA_OF_ASC_NODE = 346.3407
ARG_OF_PERICENTER = 70.6723
MEAN_ANOMALY   = 342.2623

EPHEMERIS_TYPE = 0
CLASSIFICATION_TYPE = U
NORAD_CAT_ID   = 21876
ELEMENT_SET_NO = 999
REV_AT_EPOCH   = 69489
BSTAR          = .12041E-3
MEAN_MOTION_DOT = .133E-5
MEAN_MOTION_DDOT = 0

CCSDS_OMM_VERS = 2.0
CREATION_DATE  = 
ORIGINATOR     = 

OBJECT_NAME    = SL-8 R/B
OBJECT_ID      = 1992-020B
CENTER_NAME    = EARTH
REF_FRAME      = TEME
TIME_SYSTEM    = UTC
MEAN_ELEMENT_THEORY = SGP/SGP4

EPOCH          = 2025-11-23T20:34:22.334016
MEAN_MOTION    = 13.75523442
ECCENTRICITY   = .0027773
INCLINATION    = 82.9316
RA_OF_ASC_NODE = 232.3375
ARG_OF_PERICENTER = 231.9895
MEAN_ANOMALY   = 196.5016

EPHEMERIS_TYPE = 0
CLASSIFICATION_TYPE = U
NORAD_CAT_ID   = 21938
ELEMENT_SET_NO = 999
REV_AT_EPOCH   = 68658
BSTAR          = .70475E-4
MEAN_MOTION_DOT = .83E-6
MEAN_MOTION_DDOT = 0

CCSDS_OMM_VERS = 2.0
CREATION_DATE  = 
ORIGINATOR     = 

OBJECT_NAME    = USA 81
OBJECT_ID      = 1992-023A
CENTER_NAME    = EARTH
REF_FRAME      = TEME
TIME_SYSTEM    = UTC
MEAN_ELEMENT_THEORY = SGP/SGP4

EPOCH          = 2025-11-24T00:46:15.423744
MEAN_MOTION    = 14.32317354
ECCENTRICITY   = .00023
INCLINATION    = 85.0097
RA_OF_ASC_NODE = 192.3639
ARG_OF_PERICENTER = 67.2310
MEAN_ANOMALY   = 292.9126

EPHEMERIS_TYPE = 0
CLASSIFICATION_TYPE = U
NORAD_CAT_ID   = 21949
ELEMENT_SET_NO = 999
REV_AT_EPOCH   = 7966
BSTAR          = .72398E-4
MEAN_MOTION_DOT = .215E-5
MEAN_MOTION_DDOT = 0

CCSDS_OMM_VERS = 2.0
CREATION_DATE  = 
ORIGINATOR     = 

OBJECT_NAME    = COSMOS 2219
OBJECT_ID      = 1992-076A
CENTER_NAME    = EARTH
REF_FRAME      = TEME
TIME_SYSTEM    = UTC
MEAN_ELEMENT_THEORY = SGP/SGP4

EPOCH          = 2025-11-24T02:53:03.787872
MEAN_MOTION    = 14.14066869
ECCENTRICITY   = .0018436
INCLINATION    = 71.0607
RA_OF_ASC_NODE = 238.7527
ARG_OF_PERICENTER = 353.3513
MEAN_ANOMALY   = 6.7362

EPHEMERIS_TYPE = 0
CLASSIFICATION_TYPE = U
NORAD_CAT_ID   = 22219
ELEMENT_SET_NO = 999
REV_AT_EPOCH   = 70345
BSTAR          = -.59725E-4
MEAN_MOTION_DOT = -.161E-5
MEAN_MOTION_DDOT = 0

CCSDS_OMM_VERS = 2.0
CREATION_DATE  = 
ORIGINATOR     = 

OBJECT_NAME    = SL-16 R/B
OBJECT_ID      = 1992-076B
CENTER_NAME    = EARTH
REF_FRAME      = TEME
TIME_SYSTEM    = UTC
MEAN_ELEMENT_THEORY = SGP/SGP4

EPOCH          = 2025-11-23T15:55:41.417184
MEAN_MOTION    = 14.16836225
ECCENTRICITY   = .0015124
INCLINATION    = 71.0011
RA_OF_ASC_NODE = 51.7139
ARG_OF_PERICENTER = 258.8241
MEAN_ANOMALY   = 206.5540

EPHEMERIS_TYPE = 0
CLASSIFICATION_TYPE = U
NORAD_CAT_ID   = 22220
ELEMENT_SET_NO = 999
REV_AT_EPOCH   = 70681
BSTAR          = .11163E-3
MEAN_MOTION_DOT = .176E-5
MEAN_MOTION_DDOT = 0

CCSDS_OMM_VERS = 2.0
CREATION_DATE  = 
ORIGINATOR     = 

OBJECT_NAME    = COSMOS 2221
OBJECT_ID      = 1992-080A
CENTER_NAME    = EARTH
REF_FRAME      = TEME
TIME_SYSTEM    = UTC
MEAN_ELEMENT_THEORY = SGP/SGP4

EPOCH          = 2025-11-24T02:03:41.203584
MEAN_MOTION    = 14.95658059
ECCENTRICITY   = .0014575
INCLINATION    = 82.5055
RA_OF_ASC_NODE = 20.1777
ARG_OF_PERICENTER = 181.3594
MEAN_ANOMALY   = 178.7591

EPHEMERIS_TYPE = 0
CLASSIFICATION_TYPE = U
NORAD_CAT_ID   = 22236
ELEMENT_SET_NO = 999
REV_AT_EPOCH   = 76500
BSTAR          = .21129E-3
MEAN_MOTION_DOT = .2378E-4
MEAN_MOTION_DDOT = 0

CCSDS_OMM_VERS = 2.0
CREATION_DATE  = 
ORIGINATOR     = 

OBJECT_NAME    = SL-16 R/B
OBJECT_ID      = 1992-093B
CENTER_NAME    = EARTH
REF_FRAME      = TEME
TIME_SYSTEM    = UTC
MEAN_ELEMENT_THEORY = SGP/SGP4

EPOCH          = 2025-11-24T00:23:21.440832
MEAN_MOTION    = 14.15427914
ECCENTRICITY   = .0002089
INCLINATION    = 71.0217
RA_OF_ASC_NODE = 226.0983
ARG_OF_PERICENTER = 127.4541
MEAN_ANOMALY   = 232.6772

EPHEMERIS_TYPE = 0
CLASSIFICATION_TYPE = U
NORAD_CAT_ID   = 22285
ELEMENT_SET_NO = 999
REV_AT_EPOCH   = 69820
BSTAR          = -.45967E-4
MEAN_MOTION_DOT = -.137E-5
MEAN_MOTION_DDOT = 0

