COSMOS 2151             
1 21422U 91042A   25328.07378181  .00002123  00000+0  17015-3 0  9996
2 21422  82.4968 185.4888 0014011  59.1642 301.0958 14.99589053847363
SL-14 R/B               
1 21423U 91042B   25328.07602647  .00000508  00000+0  61487-4 0  9992
2 21423  82.4914 319.2273 0015867 224.4386 135.5556 14.81713533837436
ERS-1                   
1 21574U 91050A   25328.03723105  .00000365  00000+0  13167-3 0  9999
2 21574  98.7915 338.6237 0032505 154.0550 206.2275 14.39343907800530
ARIANE 40 R/B           
1 21610U 91050F   25328.06197017  .00000415  00000+0  13706-3 0  9995
2 21610  98.2189  19.1644 0003888  51.1788 308.9749 14.42790479803762
INTERCOSMOS 25          
1 21819U 91086A   25328.05899509  .00001180  00000+0  23141-3 0  9993
2 21819  82.6071  13.8708 1487617 344.6778  11.3474 12.11638303483897
SL-8 R/B                
1 21876U 92008B   25328.06193729  .00000133  00000+0  12041-3 0  9997
2 21876  82.9269 346.3407 0036042  70.6723 342.2623 13.75953038694891
SL-8 R/B                
1 21938U 92020B   25327.85720294  .00000083  00000+0  70475-4 0  9999
2 21938  82.9316 232.3375 0027773 231.9895 196.5016 13.75523442686589
USA 81                  
1 21949U 92023A   25328.03212296  .00000215  00000+0  72398-4 0  9996
2 21949  85.0097 192.3639 0002300  67.2310 292.9126 14.32317354 79665
COSMOS 2219             
1 22219U 92076A   25328.12018273 -.00000161  00000+0 -59725-4 0  9995
2 22219  71.0607 238.7527 0018436 353.3513   6.7362 14.14066869703456
SL-16 R/B               
1 22220U 92076B   25327.66367381  .00000176  00000+0  11163-3 0  9999
2 22220  71.0011  51.7139 0015124 258.8241 206.5540 14.16836225706811
COSMOS 2221             
1 22236U 92080A   25328.08589356  .00002378  00000+0  21129-3 0  9995
2 22236  82.5055  20.1777 0014575 181.3594 178.7591 14.95658059765007
SL-16 R/B               
1 22285U 92093B   25328.01622038 -.00000137  00000+0 -45967-4 0  9991
2 22285  71.0217 226.0983 0002089 127.4541 232.6772 14.15427914698204
